PROBA-1                 
1 26958U 01049B   26158.24638244  .00002295  00000+0  15082-3 0  9995
2 26958  97.9597 166.4323 0055429 155.0839 205.3083 15.07449997342127
CUTE-1 (CO-55)          
1 27844U 03031E   26157.49994927  .00000321  00000+0  15775-3 0  9999
2 27844  98.6735 166.1932 0008851 210.1158 149.9513 14.24329258190151
CUBESAT XI-IV (CO-57)   
1 27848U 03031J   26157.55333329  .00000268  00000+0  13659-3 0  9992
2 27848  98.6767 165.9671 0008459 230.3427 129.7005 14.23615194189868
APRIZESAT 4             
1 35684U 09041D   26157.93997376  .00000743  00000+0  95107-4 0  9993
2 35684  98.1412 233.0561 0043131 356.6971   3.3951 14.83865753909843
APRIZESAT 3             
1 35686U 09041F   26158.13448620  .00001326  00000+0  11887-3 0  9991
2 35686  98.2056 310.8781 0062820 100.0489 260.7827 14.96213054914874
PROBA-2                 
1 36037U 09059B   26157.78657710  .00000207  00000+0  58854-4 0  9996
2 36037  98.2451 341.2838 0012323 317.2726  42.7512 14.54857997880015
APRIZESAT 5             
1 37792U 11044E   26158.07601243  .00001232  00000+0  16260-3 0  9998
2 37792  98.2452  90.8301 0053104  36.5494 323.9323 14.81053635797290
APRIZESAT 6             
1 37793U 11044F   26156.51628799  .00000814  00000+0  12180-3 0  9993
2 37793  98.2372  66.7773 0044238 122.3000  58.2477 14.76898404795428
PROBA-V                 
1 39159U 13021A   26158.20899676  .00000092  00000+0  58535-4 0  9993
2 39159  98.3579 137.3085 0004666 147.6602 212.4864 14.23594900679696
APRIZESAT 7             
1 39416U 13066A   26157.15188332  .00001540  00000+0  15777-3 0  9990
2 39416  97.7702 110.5307 0034355 247.0865 112.6726 14.91541126679580
APRIZESAT 8             
1 39425U 13066K   26158.11948082  .00001166  00000+0  13217-3 0  9994
2 39425  97.8217 105.7282 0044942 320.6663  39.1291 14.87632925678174
BUGSAT-1 (TITA)         
1 40014U 14033E   26158.26453514  .00008237  00000+0  43496-3 0  9990
2 40014  98.0420 250.2335 0027339 212.7028 147.2511 15.15481294654332
SAUDISAT 4              
1 40016U 14033G   26157.63620825  .00000873  00000+0  12140-3 0  9993
2 40016  97.7572 304.1370 0046185 107.2479 253.3795 14.79530218644516
APRIZESAT 9             
1 40018U 14033J   26158.09429169  .00000681  00000+0  10760-3 0  9997
2 40018  97.9049 291.5403 0065033 231.9878 127.5448 14.74201136642071
APRIZESAT 10            
1 40019U 14033K   26156.90212951  .00000481  00000+0  83483-4 0  9996
2 40019  97.9637 284.1142 0077719 310.4913  48.9538 14.70872885640592
TECHDEMOSAT-1 (TDS-1)   
1 40076U 14037H   26158.23974636  .00009359  00000+0  53189-3 0  9998
2 40076  98.3817 149.4683 0004719 312.3644  47.7185 15.13147655646729
TECHNOSAT               
1 42829U 17042E   26158.00974720  .00003117  00000+0  22364-3 0  9991
2 42829  97.4271 316.0569 0018923 126.2064 234.0916 15.04893849485172
FLYING LAPTOP           
1 42831U 17042G   26158.31997583  .00004419  00000+0  34861-3 0  9991
2 42831  97.4653 314.2358 0019010 153.8139 206.4051 15.01081705484979
HAWK-A                  
1 43765U 18099H   26157.64982495  .00007347  00000+0  29691-3 0  9990
2 43765  97.3914 210.0235 0033672 324.6995  35.2013 15.24517294411495
HAWK-B                  
1 43794U 18099AN  26157.85597942  .00006744  00000+0  28842-3 0  9991
2 43794  97.3965 209.6638 0031343 342.6540  17.3623 15.22711194411461
HAWK-C                  
1 43799U 18099AT  26157.91208887  .00008868  00000+0  32043-3 0  9997
2 43799  97.3891 211.1447 0039330 323.6382  36.2186 15.27957982412341
SALSAT                  
1 46495U 20068K   26157.74488443  .00010129  00000+0  35498-3 0  9991
2 46495  97.8851 160.1753 0009049 349.8452  10.2602 15.29647918313761
HAWK-2A                 
1 47505U 21006CW  26157.65671075  .00007467  00000+0  22534-3 0  9990
2 47505  97.2322 202.8491 0005001 231.0748 129.0050 15.34550344297880
HAWK-2B                 
1 47508U 21006CZ  26157.91361251  .00008538  00000+0  25666-3 0  9993
2 47508  97.2194 201.4494 0005561 226.7594 133.3186 15.34626064297925
HAWK-3B                 
1 48931U 21059BE  26157.48300283  .00051989  00000+0  45688-3 0  9996
2 48931  97.6678 353.1855 0003943  19.0571 341.0837 15.68648218276170
HAWK-3C                 
1 48948U 21059BX  26157.80164031  .00051393  00000+0  45097-3 0  9992
2 48948  97.6799 359.2017 0004515  18.2395 341.9027 15.68684182276226
HAWK-3A                 
1 48957U 21059CG  26157.80153909  .00049694  00000+0  43623-3 0  9998
2 48957  97.6740 356.4157 0004522  20.0334 340.1103 15.68681440276228
HAWK-5C                 
1 52754U 22057Y   26157.40026150  .00027044  00000+0  46631-3 0  9997
2 52754  97.6586 316.3762 0005409 114.0834 246.0984 15.51004853224679
HAWK-5B                 
1 52756U 22057AA  26157.65817939  .00025037  00000+0  43170-3 0  9994
2 52756  97.6598 314.9992 0006022 106.4779 253.7134 15.51016567224710
